NORAD_CAT_ID,OBJECT_NAME,OBJECT_TYPE,EPOCH,MEAN_MOTION,ECCENTRICITY,INCLINATION,RA_OF_ASC_NODE,ARG_OF_PERICENTER,MEAN_ANOMALY,BSTAR,MEAN_MOTION_DOT,MEAN_MOTION_DDOT,TLE_LINE0,TLE_LINE1,TLE_LINE2,SEMIMAJOR_AXIS,PERIOD,APOGEE,PERIGEE,DECAYED
53429.0,STARLINK-4543,PAYLOAD,2023-01-31 12:44:04,15.08840487,0.0001243,53.2168,151.1812,81.0445,279.0688,0.0001528,2.145e-05,0.0,0 STARLINK-4543,1 53429U 22097AT  23031.53061170  .00002145  00000-0  15280-3 0  9996,2 53429  53.2168 151.1812 0001243  81.0445 279.0688 15.08840487 27713,6917.879,95.438,540.604,538.884,0.0
53429.0,STARLINK-4543,PAYLOAD,2023-01-31 15:54:50,15.08843222,0.0001139,53.2166,150.5866,64.2755,295.8354,0.00015523,2.184e-05,0.0,0 STARLINK-4543,1 53429U 22097AT  23031.66309013  .00002184  00000-0  15523-3 0  9994,2 53429  53.2166 150.5866 0001139  64.2755 295.8354 15.08843222 27732,6917.871,95.437,540.523,538.948,0.0
53429.0,STARLINK-4543,PAYLOAD,2023-02-01 01:27:09,15.08843191,0.0001315,53.2169,148.8017,87.6736,272.4406,8.5304e-05,1.07e-05,0.0,0 STARLINK-4543,1 53429U 22097AT  23032.06053057  .00001070  00000-0  85304-4 0  9991,2 53429  53.2169 148.8017 0001315  87.6736 272.4406 15.08843191 27315,6917.871,95.437,540.645,538.826,0.0
53429.0,STARLINK-4543,PAYLOAD,2023-02-01 10:59:30,15.08794343,0.0001227,53.2162,147.0171,108.6967,251.4159,0.00075247,0.00011693,0.0,0 STARLINK-4543,1 53429U 22097AT  23032.45798642  .00011693  00000-0  75247-3 0  9996,2 53429  53.2162 147.0171 0001227 108.6967 251.4159 15.08794343 27374,6918.02,95.44,540.734,539.036,0.0
53429.0,STARLINK-4543,PAYLOAD,2023-02-01 12:34:51,15.08844532,0.0001286,53.2167,146.7198,95.2,264.9139,9.4594e-06,-1.37e-06,0.0,0 STARLINK-4543,1 53429U 22097AT  23032.52421015 -.00000137  00000-0  94594-5 0  9991,2 53429  53.2167 146.7198 0001286  95.2000 264.9139 15.08844532 27865,6917.867,95.437,540.621,538.842,0.0
53429.0,STARLINK-4543,PAYLOAD,2023-02-02 12:25:39,15.08838987,0.0001212,53.2171,142.2599,103.5684,256.5443,-1.9984e-05,-6.06e-06,0.0,0 STARLINK-4543,1 53429U 22097AT  23033.51781561 -.00000606  00000-0 -19984-4 0  9997,2 53429  53.2171 142.2599 0001212 103.5684 256.5443 15.08838987 28016,6917.883,95.438,540.587,538.91,0.0
53429.0,STARLINK-4543,PAYLOAD,2023-02-02 23:33:21,15.08839047,0.0001212,53.2172,140.1796,83.6936,276.4194,-6.3111e-06,-3.88e-06,0.0,0 STARLINK-4543,1 53429U 22097AT  23033.98149629 -.00000388  00000-0 -63111-5 0  9990,2 53429  53.2172 140.1796 0001212  83.6936 276.4194 15.08839047 27607,6917.883,95.438,540.587,538.91,0.0
53429.0,STARLINK-4543,PAYLOAD,2023-02-03 07:30:17,15.08826714,0.0001112,53.217,138.693,93.0552,267.0567,-3.6453e-05,-8.68e-06,0.0,0 STARLINK-4543,1 53429U 22097AT  23034.31270617 -.00000868  00000-0 -36453-4 0  9991,2 53429  53.2170 138.6930 0001112  93.0552 267.0567 15.08826714 27657,6917.921,95.438,540.555,539.017,0.0
53429.0,STARLINK-4543,PAYLOAD,2023-02-03 09:05:41,15.08825986,0.0001057,53.217,138.3958,91.2053,268.906,-4.3953e-05,-9.87e-06,0.0,0 STARLINK-4543,1 53429U 22097AT  23034.37894692 -.00000987  00000-0 -43953-4 0  9997,2 53429  53.2170 138.3958 0001057  91.2053 268.9060 15.08825986 28141,6917.923,95.438,540.519,539.057,0.0
53429.0,STARLINK-4543,PAYLOAD,2023-02-04 05:45:41,15.08837487,9.24e-05,53.2171,134.5298,94.8174,265.2923,8.9184e-05,1.132e-05,0.0,0 STARLINK-4543,1 53429U 22097AT  23035.24006009  .00001132  00000-0  89184-4 0  9998,2 53429  53.2171 134.5298 0000924  94.8174 265.2923 15.08837487 27799,6917.888,95.438,540.392,539.114,0.0
53429.0,STARLINK-4543,PAYLOAD,2023-02-04 12:07:13,15.08843429,9.29e-05,53.2171,133.3408,88.4553,271.6545,0.00013652,1.886e-05,0.0,0 STARLINK-4543,1 53429U 22097AT  23035.50501584  .00001886  00000-0  13652-3 0  9997,2 53429  53.2171 133.3408 0000929  88.4553 271.6545 15.08843429 28317,6917.87,95.437,540.378,539.092,0.0
53429.0,STARLINK-4543,PAYLOAD,2023-02-04 15:17:59,15.08851023,9.39e-05,53.2186,132.7443,80.7027,279.4071,0.00018293,2.626e-05,0.0,0 STARLINK-4543,1 53429U 22097AT  23035.63748947  .00002626  00000-0  18293-3 0  9996,2 53429  53.2186 132.7443 0000939  80.7027 279.4071 15.08851023 27854,6917.847,95.437,540.361,539.062,0.0
53429.0,STARLINK-4543,PAYLOAD,2023-02-04 23:14:55,15.08846056,8.37e-05,53.2163,131.2569,71.7965,288.3118,0.00011604,1.56e-05,0.0,0 STARLINK-4543,1 53429U 22097AT  23035.96869288  .00001560  00000-0  11604-3 0  9999,2 53429  53.2163 131.2569 0000837  71.7965 288.3118 15.08846056 27907,6917.862,95.437,540.306,539.148,0.0
53429.0,STARLINK-4543,PAYLOAD,2023-02-05 13:33:23,15.08845784,9.6e-05,53.2179,128.5823,82.2186,277.8915,0.00013059,1.792e-05,0.0,0 STARLINK-4543,1 53429U 22097AT  23036.56485415  .00001792  00000-0  13059-3 0  9995,2 53429  53.2179 128.5823 0000960  82.2186 277.8915 15.08845784 28473,6917.863,95.437,540.392,539.064,0.0
53429.0,STARLINK-4543,PAYLOAD,2023-02-05 15:08:46,15.08831483,0.0001352,53.2169,128.2839,93.2444,266.8703,0.00032496,4.886e-05,0.0,0 STARLINK-4543,1 53429U 22097AT  23036.63109893  .00004886  00000-0  32496-3 0  9999,2 53429  53.2169 128.2839 0001352  93.2444 266.8703 15.08831483 28004,6917.906,95.438,540.707,538.836,0.0
53429.0,STARLINK-4543,PAYLOAD,2023-02-06 13:24:10,15.08846461,0.0001076,53.2168,124.1216,85.7589,274.3526,-9.0579e-06,-4.32e-06,0.0,0 STARLINK-4543,1 53429U 22097AT  23037.55845723 -.00000432  00000-0 -90579-5 0  9993,2 53429  53.2168 124.1216 0001076  85.7589 274.3526 15.08846461 28623,6917.861,95.437,540.47,538.981,0.0
53429.0,STARLINK-4543,PAYLOAD,2023-02-07 05:18:02,15.08841471,0.0001158,53.2178,121.1481,84.2573,275.8551,6.0386e-05,6.73e-06,0.0,0 STARLINK-4543,1 53429U 22097AT  23038.22085719  .00000673  00000-0  60386-4 0  9996,2 53429  53.2178 121.1481 0001158  84.2573 275.8551 15.08841471 28241,6917.876,95.437,540.542,538.94,0.0
53429.0,STARLINK-4543,PAYLOAD,2023-02-07 11:39:33,15.08853175,0.0001364,53.2173,119.961,74.2178,285.8964,5.308e-05,5.57e-06,0.0,0 STARLINK-4543,1 53429U 22097AT  23038.48580982  .00000557  00000-0  53080-4 0  9990,2 53429  53.2173 119.9610 0001364  74.2178 285.8964 15.08853175 28281,6917.84,95.437,540.649,538.762,0.0
53429.0,STARLINK-4543,PAYLOAD,2023-02-07 16:25:41,15.08868559,0.0001066,53.2184,119.0661,82.4318,277.6795,0.00017979,2.577e-05,0.0,0 STARLINK-4543,1 53429U 22097AT  23038.68451258  .00002577  00000-0  17979-3 0  9995,2 53429  53.2184 119.0661 0001066  82.4318 277.6795 15.08868559 28795,6917.793,95.436,540.396,538.921,0.0
53429.0,STARLINK-4543,PAYLOAD,2023-02-08 08:19:35,15.08830814,0.0001072,53.2176,116.0938,99.6702,260.4412,4.3366e-05,4.02e-06,0.0,0 STARLINK-4543,1 53429U 22097AT  23039.34694134  .00000402  00000-0  43366-4 0  9996,2 53429  53.2176 116.0938 0001072  99.6702 260.4412 15.08830814 28412,6917.908,95.438,540.515,539.032,0.0
53429.0,STARLINK-4543,PAYLOAD,2023-02-08 11:30:21,15.08840923,0.0001146,53.2174,115.4996,90.1987,269.9136,5.5058e-05,5.89e-06,0.0,0 STARLINK-4543,1 53429U 22097AT  23039.47941604  .00000589  00000-0  55058-4 0  9994,2 53429  53.2174 115.4996 0001146  90.1987 269.9136 15.08840923 28431,6917.878,95.437,540.535,538.95,0.0
53429.0,STARLINK-4543,PAYLOAD,2023-02-08 14:41:06,15.08853373,0.0001158,53.2176,114.9041,99.6509,260.4614,0.0001425,1.982e-05,0.0,0 STARLINK-4543,1 53429U 22097AT  23039.61188596  .00001982  00000-0  14250-3 0  9999,2 53429  53.2176 114.9041 0001158  99.6509 260.4614 15.08853373 28457,6917.84,95.437,540.506,538.903,0.0
53429.0,STARLINK-4543,PAYLOAD,2023-02-09 04:59:36,15.08830479,0.0001583,53.2169,112.2308,83.5454,276.5718,-8.9979e-05,-1.719e-05,0.0,0 STARLINK-4543,1 53429U 22097AT  23040.20806568 -.00001719  00000-0 -89979-4 0  9993,2 53429  53.2169 112.2308 0001583  83.5454 276.5718 15.08830479 28544,6917.909,95.438,540.87,538.679,0.0
53429.0,STARLINK-4543,PAYLOAD,2023-02-09 11:21:09,15.08835146,0.0001534,53.2184,111.0396,104.8448,255.2714,-5.4537e-05,-1.156e-05,0.0,0 STARLINK-4543,1 53429U 22097AT  23040.47302382 -.00001156  00000-0 -54537-4 0  9994,2 53429  53.2184 111.0396 0001534 104.8448 255.2714 15.08835146 29065,6917.895,95.438,540.821,538.699,0.0
53429.0,STARLINK-4543,PAYLOAD,2023-02-10 11:11:56,15.08846181,0.0001346,53.2178,106.5774,89.6534,270.4612,0.00037072,5.618e-05,0.0,0 STARLINK-4543,1 53429U 22097AT  23041.46662566  .00005618  00000-0  37072-3 0  9996,2 53429  53.2178 106.5774 0001346  89.6534 270.4612 15.08846181 28734,6917.861,95.437,540.658,538.795,0.0
53429.0,STARLINK-4543,PAYLOAD,2023-02-10 20:44:15,15.08838334,0.0001394,53.2176,104.7913,75.7018,284.4128,0.00031327,4.701e-05,0.0,0 STARLINK-4543,1 53429U 22097AT  23041.86406832  .00004701  00000-0  31327-3 0  9991,2 53429  53.2176 104.7913 0001394  75.7018 284.4128 15.08838334 29271,6917.885,95.438,540.715,538.786,0.0
53429.0,STARLINK-4543,PAYLOAD,2023-02-11 12:38:06,15.08852329,0.0001582,53.2179,101.8221,98.3752,261.7419,0.00043212,6.598e-05,0.0,0 STARLINK-4543,1 53429U 22097AT  23042.52646780  .00006598  00000-0  43212-3 0  9995,2 53429  53.2179 101.8221 0001582  98.3752 261.7419 15.08852329 29371,6917.843,95.437,540.802,538.613,0.0
53429.0,STARLINK-4543,PAYLOAD,2023-02-11 20:35:02,15.08830503,6.11e-05,53.2178,100.3355,162.0552,198.0461,-0.00026542,-4.508e-05,0.0,0 STARLINK-4543,1 53429U 22097AT  23042.85766756 -.00004508  00000-0 -26542-3 0  9995,2 53429  53.2178 100.3355 0000611 162.0552 198.0461 15.08830503 28942,6917.909,95.438,540.197,539.352,0.0
53429.0,STARLINK-4543,PAYLOAD,2023-02-12 12:28:53,15.08868425,0.0001164,53.2164,97.3597,99.6825,260.4299,0.0026967,0.00042925,0.0,0 STARLINK-4543,1 53429U 22097AT  23043.52006909  .00042925  00000-0  26967-2 0  9990,2 53429  53.2164  97.3597 0001164  99.6825 260.4299 15.08868425 29524,6917.794,95.436,540.464,538.853,0.0
53429.0,STARLINK-4543,PAYLOAD,2023-02-12 14:04:17,15.08873378,0.0001164,53.2164,97.0624,98.5169,261.5955,0.0027752,0.00044197,0.0,0 STARLINK-4543,1 53429U 22097AT  23043.58630794  .00044197  00000-0  27752-2 0  9997,2 53429  53.2164  97.0624 0001164  98.5169 261.5955 15.08873378 29053,6917.778,95.435,540.449,538.838,0.0
